CTC2_L_00554028-11
1 72921U 23946WL  26070.40850694  .00000000  00000+0  00000-0 0  9995
2 72921  98.7000 324.0000 0000000   0.0000 272.0000 14.27529684    16
CTC2_L_00554028-12
1 72922U 22744AQ  26070.40850694  .00000000  00000+0  00000-0 0  9991
2 72922  98.7000 324.0000 0000000   0.0000 292.0000 14.27529684    19
CTC2_L_00554028-13
1 72923U 23498XU  26070.40850694  .00000000  00000+0  00000-0 0  9999
2 72923  98.7000 324.0000 0000000   0.0000 312.0000 14.27529684    13
CTC2_L_00554028-14
1 72924U 26621HQ  26070.40850694  .00000000  00000+0  00000-0 0  9991
2 72924  98.7000 324.0000 0000000   0.0000 332.0000 14.27529684    16
CTC2_L_00554028-15
1 72925U 26124RA  26070.40850694  .00000000  00000+0  00000-0 0  9990
2 72925  98.7000 324.0000 0000000   0.0000 352.0000 14.27529684    19
CTC2_L_00554028-16
1 72926U 24812VS  26070.40850694  .00000000  00000+0  00000-0 0  9993
2 72926  98.7000 324.0000 0000000   0.0000  12.0000 14.27529684    13
CTC2_L_00554028-17
1 72927U 23571H   26070.40850694  .00000000  00000+0  00000-0 0  9995
2 72927  98.7000 324.0000 0000000   0.0000  32.0000 14.27529684    16
CTC2_L_00554028-18
1 72928U 25309QD  26070.40850694  .00000000  00000+0  00000-0 0  9997
2 72928  98.7000 324.0000 0000000   0.0000  52.0000 14.27529684    19
CTC2_L_00554029-01
1 72929U 24745RH  26070.40850694  .00000000  00000+0  00000-0 0  9991
2 72929  98.7000 336.0000 0000000   0.0000  74.6667 14.27529684    12
CTC2_L_00554029-02
1 72930U 23743OO  26070.40850694  .00000000  00000+0  00000-0 0  9990
2 72930  98.7000 336.0000 0000000   0.0000  94.6667 14.27529684    16
CTC2_L_00554029-03
1 72931U 24054JU  26070.40850694  .00000000  00000+0  00000-0 0  9997
2 72931  98.7000 336.0000 0000000   0.0000 114.6667 14.27529684    10
CTC2_L_00554029-04
1 72932U 24823TJ  26070.40850694  .00000000  00000+0  00000-0 0  9992
2 72932  98.7000 336.0000 0000000   0.0000 134.6667 14.27529684    13
CTC2_L_00554029-05
1 72933U 25863MH  26070.40850694  .00000000  00000+0  00000-0 0  9998
2 72933  98.7000 336.0000 0000000   0.0000 154.6667 14.27529684    16
CTC2_L_00554029-06
1 72934U 24493WU  26070.40850694  .00000000  00000+0  00000-0 0  9997
2 72934  98.7000 336.0000 0000000   0.0000 174.6667 14.27529684    19
CTC2_L_00554029-07
1 72935U 25805CC  26070.40850694  .00000000  00000+0  00000-0 0  9996
2 72935  98.7000 336.0000 0000000   0.0000 194.6667 14.27529684    12
CTC2_L_00554029-08
1 72936U 24977JQ  26070.40850694  .00000000  00000+0  00000-0 0  9996
2 72936  98.7000 336.0000 0000000   0.0000 214.6667 14.27529684    16
CTC2_L_00554029-09
1 72937U 25431LL  26070.40850694  .00000000  00000+0  00000-0 0  9993
2 72937  98.7000 336.0000 0000000   0.0000 234.6667 14.27529684    19
CTC2_L_00554029-10
1 72938U 22673XJ  26070.40850694  .00000000  00000+0  00000-0 0  9999
2 72938  98.7000 336.0000 0000000   0.0000 254.6667 14.27529684    12
CTC2_L_00554029-11
1 72939U 24645QL  26070.40850694  .00000000  00000+0  00000-0 0  9991
2 72939  98.7000 336.0000 0000000   0.0000 274.6667 14.27529684    15
CTC2_L_00554029-12
1 72940U 26993BK  26070.40850694  .00000000  00000+0  00000-0 0  9991
2 72940  98.7000 336.0000 0000000   0.0000 294.6667 14.27529684    19
CTC2_L_00554029-13
1 72941U 24364HF  26070.40850694  .00000000  00000+0  00000-0 0  9992
2 72941  98.7000 336.0000 0000000   0.0000 314.6667 14.27529684    13
CTC2_L_00554029-14
1 72942U 25656MA  26070.40850694  .00000000  00000+0  00000-0 0  9998
2 72942  98.7000 336.0000 0000000   0.0000 334.6667 14.27529684    16
CTC2_L_00554029-15
1 72943U 22186VP  26070.40850694  .00000000  00000+0  00000-0 0  9994
2 72943  98.7000 336.0000 0000000   0.0000 354.6667 14.27529684    19
CTC2_L_00554029-16
1 72944U 23776RK  26070.40850694  .00000000  00000+0  00000-0 0  9991
2 72944  98.7000 336.0000 0000000   0.0000  14.6667 14.27529684    13
CTC2_L_00554029-17
1 72945U 24892HV  26070.40850694  .00000000  00000+0  00000-0 0  9992
2 72945  98.7000 336.0000 0000000   0.0000  34.6667 14.27529684    16
CTC2_L_00554029-18
1 72946U 22900AS  26070.40850694  .00000000  00000+0  00000-0 0  9991
2 72946  98.7000 336.0000 0000000   0.0000  54.6667 14.27529684    19
CTC2_L_00554030-01
1 72947U 26347ZK  26070.40850694  .00000000  00000+0  00000-0 0  9991
2 72947  98.7000 348.0000 0000000   0.0000  77.3333 14.27529684    15
CTC2_L_00554030-02
1 72948U 22507PW  26070.40850694  .00000000  00000+0  00000-0 0  9996
2 72948  98.7000 348.0000 0000000   0.0000  97.3333 14.27529684    18
CTC2_L_00554030-03
1 72949U 24483FH  26070.40850694  .00000000  00000+0  00000-0 0  9992
2 72949  98.7000 348.0000 0000000   0.0000 117.3333 14.27529684    12
CTC2_L_00554030-04
1 72950U 22765XH  26070.40850694  .00000000  00000+0  00000-0 0  9995
2 72950  98.7000 348.0000 0000000   0.0000 137.3333 14.27529684    16
CTC2_L_00554030-05
1 72951U 25168JX  26070.40850694  .00000000  00000+0  00000-0 0  9996
2 72951  98.7000 348.0000 0000000   0.0000 157.3333 14.27529684    19
CTC2_L_00554030-06
1 72952U 23394RV  26070.40850694  .00000000  00000+0  00000-0 0  9996
2 72952  98.7000 348.0000 0000000   0.0000 177.3333 14.27529684    12
CTC2_L_00554030-07
1 72953U 22456HN  26070.40850694  .00000000  00000+0  00000-0 0  9995
2 72953  98.7000 348.0000 0000000   0.0000 197.3333 14.27529684    15
CTC2_L_00554030-08
1 72954U 23879CV  26070.40850694  .00000000  00000+0  00000-0 0  9996
2 72954  98.7000 348.0000 0000000   0.0000 217.3333 14.27529684    19
CTC2_L_00554030-09
1 72955U 24634FF  26070.40850694  .00000000  00000+0  00000-0 0  9997
2 72955  98.7000 348.0000 0000000   0.0000 237.3333 14.27529684    12
CTC2_L_00554030-10
1 72956U 24547JJ  26070.40850694  .00000000  00000+0  00000-0 0  9991
2 72956  98.7000 348.0000 0000000   0.0000 257.3333 14.27529684    15
CTC2_L_00554030-11
1 72957U 25519PB  26070.40850694  .00000000  00000+0  00000-0 0  9992
2 72957  98.7000 348.0000 0000000   0.0000 277.3333 14.27529684    18
CTC2_L_00554030-12
1 72958U 25575TU  26070.40850694  .00000000  00000+0  00000-0 0  9995
2 72958  98.7000 348.0000 0000000   0.0000 297.3333 14.27529684    11
CTC2_L_00554030-13
1 72959U 22410OW  26070.40850694  .00000000  00000+0  00000-0 0  9991
2 72959  98.7000 348.0000 0000000   0.0000 317.3333 14.27529684    15
CTC2_L_00554030-14
1 72960U 23619TH  26070.40850694  .00000000  00000+0  00000-0 0  9995
2 72960  98.7000 348.0000 0000000   0.0000 337.3333 14.27529684    19
CTC2_L_00554030-15
1 72961U 22884VF  26070.40850694  .00000000  00000+0  00000-0 0  9999
2 72961  98.7000 348.0000 0000000   0.0000 357.3333 14.27529684    12
CTC2_L_00554030-16
1 72962U 26323GV  26070.40850694  .00000000  00000+0  00000-0 0  9992
2 72962  98.7000 348.0000 0000000   0.0000  17.3333 14.27529684    16
CTC2_L_00554030-17
1 72963U 23974HK  26070.40850694  .00000000  00000+0  00000-0 0  9992
2 72963  98.7000 348.0000 0000000   0.0000  37.3333 14.27529684    19
CTC2_L_00554030-18
1 72964U 25032NF  26070.40850694  .00000000  00000+0  00000-0 0  9990
2 72964  98.7000 348.0000 0000000   0.0000  57.3333 14.27529684    12
